[OverheadWindow(satellite=Satellite(name='0 COSMOS 1932 DEB', tle_information=TleInformation(argument_of_perigee=5.153187590939126, drag_coefficient=0.00015211, eccentricity=0.0057116, epoch_days=26633.28893622, inclination=1.1352005427406557, international_designator=InternationalDesignator(year=88, launch_number=19, launch_piece='F'), mean_anomaly=4.188343400497881, mean_motion=MeanMotion(first_derivative=2.363466695408988e-12, second_derivative=0.0, value=0.060298700041442894), revolution_number=95238, right_ascension_of_ascending_node=2.907844197528697, satellite_number=28275, classification='U'), frequency=None), overhead_time=TimeWindow(begin=datetime.datetime(2023, 1, 1, 2, 16, 58, tzinfo=<UTC>), end=datetime.datetime(2023, 1, 1, 2, 17, 49, tzinfo=<UTC>))), OverheadWindow(satellite=Satellite(name='0 COSMOS 1932 DEB', tle_information=TleInformation(argument_of_perigee=5.153187590939126, drag_coefficient=0.00015211, eccentricity=0.0057116, epoch_days=26633.28893622, inclination=1.1352005427406557, international_designator=InternationalDesignator(year=88, launch_number=19, launch_piece='F'), mean_anomaly=4.188343400497881, mean_motion=MeanMotion(first_derivative=2.363466695408988e-12, second_derivative=0.0, value=0.060298700041442894), revolution_number=95238, right_ascension_of_ascending_node=2.907844197528697, satellite_number=28275, classification='U'), frequency=None), overhead_time=TimeWindow(begin=datetime.datetime(2023, 1, 1, 2, 35, 20, tzinfo=<UTC>), end=datetime.datetime(2023, 1, 1, 2, 36, 21, tzinfo=<UTC>)))]